CCSDS_OMM_VERS = 2.0
CREATION_DATE  = 
ORIGINATOR     = 

OBJECT_NAME    = STARLINK-36942
OBJECT_ID      = 2026-040R
CENTER_NAME    = EARTH
REF_FRAME      = TEME
TIME_SYSTEM    = UTC
MEAN_ELEMENT_THEORY = SGP/SGP4

EPOCH          = 2026-03-20T04:00:01.999584
MEAN_MOTION    = 15.77555697
ECCENTRICITY   = .00012758
INCLINATION    = 97.2825
RA_OF_ASC_NODE = 28.1471
ARG_OF_PERICENTER = 96.5842
MEAN_ANOMALY   = 336.8580

EPHEMERIS_TYPE = 0
CLASSIFICATION_TYPE = U
NORAD_CAT_ID   = 68030
ELEMENT_SET_NO = 999
REV_AT_EPOCH   = 411
BSTAR          = -.1257075E-1
MEAN_MOTION_DOT = -.1824772E-1
MEAN_MOTION_DDOT = 0

CCSDS_OMM_VERS = 2.0
CREATION_DATE  = 
ORIGINATOR     = 

OBJECT_NAME    = STARLINK-36913
OBJECT_ID      = 2026-040S
CENTER_NAME    = EARTH
REF_FRAME      = TEME
TIME_SYSTEM    = UTC
MEAN_ELEMENT_THEORY = SGP/SGP4

EPOCH          = 2026-03-20T04:00:01.999584
MEAN_MOTION    = 15.77598519
ECCENTRICITY   = .00014525
INCLINATION    = 97.2821
RA_OF_ASC_NODE = 28.1475
ARG_OF_PERICENTER = 85.5008
MEAN_ANOMALY   = 352.0366

EPHEMERIS_TYPE = 0
CLASSIFICATION_TYPE = U
NORAD_CAT_ID   = 68031
ELEMENT_SET_NO = 999
REV_AT_EPOCH   = 411
BSTAR          = -.14189596E-1
MEAN_MOTION_DOT = -.2030334E-1
MEAN_MOTION_DDOT = 0

CCSDS_OMM_VERS = 2.0
CREATION_DATE  = 
ORIGINATOR     = 

OBJECT_NAME    = STARLINK-36935
OBJECT_ID      = 2026-040T
CENTER_NAME    = EARTH
REF_FRAME      = TEME
TIME_SYSTEM    = UTC
MEAN_ELEMENT_THEORY = SGP/SGP4

EPOCH          = 2026-03-20T04:00:01.999584
MEAN_MOTION    = 15.77108196
ECCENTRICITY   = .00013862
INCLINATION    = 97.2826
RA_OF_ASC_NODE = 28.1629
ARG_OF_PERICENTER = 84.8040
MEAN_ANOMALY   = 21.4864

EPHEMERIS_TYPE = 0
CLASSIFICATION_TYPE = U
NORAD_CAT_ID   = 68032
ELEMENT_SET_NO = 999
REV_AT_EPOCH   = 420
BSTAR          = -.12881986E-1
MEAN_MOTION_DOT = -.1831988E-1
MEAN_MOTION_DDOT = 0

CCSDS_OMM_VERS = 2.0
CREATION_DATE  = 
ORIGINATOR     = 

OBJECT_NAME    = STARLINK-36947
OBJECT_ID      = 2026-040U
CENTER_NAME    = EARTH
REF_FRAME      = TEME
TIME_SYSTEM    = UTC
MEAN_ELEMENT_THEORY = SGP/SGP4

EPOCH          = 2026-03-20T04:00:01.999584
MEAN_MOTION    = 15.77496817
ECCENTRICITY   = .00013914
INCLINATION    = 97.2826
RA_OF_ASC_NODE = 28.1500
ARG_OF_PERICENTER = 94.5411
MEAN_ANOMALY   = 347.1178

EPHEMERIS_TYPE = 0
CLASSIFICATION_TYPE = U
NORAD_CAT_ID   = 68033
ELEMENT_SET_NO = 999
REV_AT_EPOCH   = 411
BSTAR          = -.13308146E-1
MEAN_MOTION_DOT = -.1913456E-1
MEAN_MOTION_DDOT = 0

CCSDS_OMM_VERS = 2.0
CREATION_DATE  = 
ORIGINATOR     = 

OBJECT_NAME    = STARLINK-36939
OBJECT_ID      = 2026-040V
CENTER_NAME    = EARTH
REF_FRAME      = TEME
TIME_SYSTEM    = UTC
MEAN_ELEMENT_THEORY = SGP/SGP4

EPOCH          = 2026-03-20T04:00:01.999584
MEAN_MOTION    = 15.77226527
ECCENTRICITY   = .00015297
INCLINATION    = 97.2825
RA_OF_ASC_NODE = 28.1602
ARG_OF_PERICENTER = 98.5402
MEAN_ANOMALY   = 359.5490

EPHEMERIS_TYPE = 0
CLASSIFICATION_TYPE = U
NORAD_CAT_ID   = 68034
ELEMENT_SET_NO = 999
REV_AT_EPOCH   = 411
BSTAR          = -.12646541E-1
MEAN_MOTION_DOT = -.1811109E-1
MEAN_MOTION_DDOT = 0

CCSDS_OMM_VERS = 2.0
CREATION_DATE  = 
ORIGINATOR     = 

OBJECT_NAME    = STARLINK-36943
OBJECT_ID      = 2026-040W
CENTER_NAME    = EARTH
REF_FRAME      = TEME
TIME_SYSTEM    = UTC
MEAN_ELEMENT_THEORY = SGP/SGP4

EPOCH          = 2026-03-20T04:00:01.999584
MEAN_MOTION    = 15.75441288
ECCENTRICITY   = .00012011
INCLINATION    = 97.2854
RA_OF_ASC_NODE = 28.1668
ARG_OF_PERICENTER = 95.1476
MEAN_ANOMALY   = 10.6492

EPHEMERIS_TYPE = 0
CLASSIFICATION_TYPE = U
NORAD_CAT_ID   = 68035
ELEMENT_SET_NO = 999
REV_AT_EPOCH   = 416
BSTAR          = -.29603851E-2
MEAN_MOTION_DOT = -.425055E-2
MEAN_MOTION_DDOT = 0

CCSDS_OMM_VERS = 2.0
CREATION_DATE  = 
ORIGINATOR     = 

OBJECT_NAME    = STARLINK-36906
OBJECT_ID      = 2026-040X
CENTER_NAME    = EARTH
REF_FRAME      = TEME
TIME_SYSTEM    = UTC
MEAN_ELEMENT_THEORY = SGP/SGP4

EPOCH          = 2026-03-20T04:00:01.999584
MEAN_MOTION    = 15.77281427
ECCENTRICITY   = .00014945
INCLINATION    = 97.2840
RA_OF_ASC_NODE = 28.1581
ARG_OF_PERICENTER = 99.9973
MEAN_ANOMALY   = 353.9871

EPHEMERIS_TYPE = 0
CLASSIFICATION_TYPE = U
NORAD_CAT_ID   = 68036
ELEMENT_SET_NO = 999
REV_AT_EPOCH   = 411
BSTAR          = -.12478973E-1
MEAN_MOTION_DOT = -.1793862E-1
MEAN_MOTION_DDOT = 0

CCSDS_OMM_VERS = 2.0
CREATION_DATE  = 
ORIGINATOR     = 

OBJECT_NAME    = STARLINK-36388
OBJECT_ID      = 2026-040Y
CENTER_NAME    = EARTH
REF_FRAME      = TEME
TIME_SYSTEM    = UTC
MEAN_ELEMENT_THEORY = SGP/SGP4

EPOCH          = 2026-03-20T04:00:01.999584
MEAN_MOTION    = 15.77168089
ECCENTRICITY   = .00012974
INCLINATION    = 97.2828
RA_OF_ASC_NODE = 28.1619
ARG_OF_PERICENTER = 87.8085
MEAN_ANOMALY   = 14.3825

EPHEMERIS_TYPE = 0
CLASSIFICATION_TYPE = U
NORAD_CAT_ID   = 68037
ELEMENT_SET_NO = 999
REV_AT_EPOCH   = 406
BSTAR          = -.12876618E-1
MEAN_MOTION_DOT = -.183553E-1
MEAN_MOTION_DDOT = 0

CCSDS_OMM_VERS = 2.0
CREATION_DATE  = 
ORIGINATOR     = 

OBJECT_NAME    = STARLINK-36895
OBJECT_ID      = 2026-040Z
CENTER_NAME    = EARTH
REF_FRAME      = TEME
TIME_SYSTEM    = UTC
MEAN_ELEMENT_THEORY = SGP/SGP4

EPOCH          = 2026-03-20T04:00:01.999584
MEAN_MOTION    = 15.77340432
ECCENTRICITY   = .00015417
INCLINATION    = 97.2829
RA_OF_ASC_NODE = 28.1537
ARG_OF_PERICENTER = 104.8132
MEAN_ANOMALY   = 345.0667

EPHEMERIS_TYPE = 0
CLASSIFICATION_TYPE = U
NORAD_CAT_ID   = 68038
ELEMENT_SET_NO = 999
REV_AT_EPOCH   = 411
BSTAR          = -.12246466E-1
MEAN_MOTION_DOT = -.1768572E-1
MEAN_MOTION_DDOT = 0

CCSDS_OMM_VERS = 2.0
CREATION_DATE  = 
ORIGINATOR     = 

OBJECT_NAME    = STARLINK-36373
OBJECT_ID      = 2026-040AA
CENTER_NAME    = EARTH
REF_FRAME      = TEME
TIME_SYSTEM    = UTC
MEAN_ELEMENT_THEORY = SGP/SGP4

EPOCH          = 2026-03-20T04:00:01.999584
MEAN_MOTION    = 15.77375654
ECCENTRICITY   = .00012776
INCLINATION    = 97.2829
RA_OF_ASC_NODE = 28.1525
ARG_OF_PERICENTER = 92.5337
MEAN_ANOMALY   = 353.2404

EPHEMERIS_TYPE = 0
CLASSIFICATION_TYPE = U
NORAD_CAT_ID   = 68039
ELEMENT_SET_NO = 999
REV_AT_EPOCH   = 406
BSTAR          = -.11964758E-1
MEAN_MOTION_DOT = -.1734852E-1
MEAN_MOTION_DDOT = 0

CCSDS_OMM_VERS = 2.0
CREATION_DATE  = 
ORIGINATOR     = 

OBJECT_NAME    = STARLINK-36711
OBJECT_ID      = 2026-041A
CENTER_NAME    = EARTH
REF_FRAME      = TEME
TIME_SYSTEM    = UTC
MEAN_ELEMENT_THEORY = SGP/SGP4

EPOCH          = 2026-03-20T04:11:53.249568
MEAN_MOTION    = 15.75298664
ECCENTRICITY   = .00010796
INCLINATION    = 53.1595
RA_OF_ASC_NODE = 9.8195
ARG_OF_PERICENTER = 90.4098
MEAN_ANOMALY   = 269.7046

EPHEMERIS_TYPE = 0
CLASSIFICATION_TYPE = U
NORAD_CAT_ID   = 68040
ELEMENT_SET_NO = 999
REV_AT_EPOCH   = 287
BSTAR          = .14307573E-2
MEAN_MOTION_DOT = .225202E-2
MEAN_MOTION_DDOT = 0

CCSDS_OMM_VERS = 2.0
CREATION_DATE  = 
ORIGINATOR     = 

OBJECT_NAME    = STARLINK-36825
OBJECT_ID      = 2026-041B
CENTER_NAME    = EARTH
REF_FRAME      = TEME
TIME_SYSTEM    = UTC
MEAN_ELEMENT_THEORY = SGP/SGP4

EPOCH          = 2026-03-20T05:13:05.075904
MEAN_MOTION    = 15.80923285
ECCENTRICITY   = .00008956
INCLINATION    = 53.1599
RA_OF_ASC_NODE = 9.3639
ARG_OF_PERICENTER = 82.3510
MEAN_ANOMALY   = 277.7614

EPHEMERIS_TYPE = 0
CLASSIFICATION_TYPE = U
NORAD_CAT_ID   = 68041
ELEMENT_SET_NO = 999
REV_AT_EPOCH   = 288
BSTAR          = .80001639E-3
MEAN_MOTION_DOT = .160538E-2
MEAN_MOTION_DDOT = 0

