STARLINK-36942          
1 68030U 26040R   26079.16668981 -.01824772  00000+0 -12571-1 0  9997
2 68030  97.2825  28.1471 0001275  96.5842 336.8580 15.77555697  4110
STARLINK-36913          
1 68031U 26040S   26079.16668981 -.02030334  00000+0 -14190-1 0  9991
2 68031  97.2821  28.1475 0001452  85.5008 352.0366 15.77598519  4112
STARLINK-36935          
1 68032U 26040T   26079.16668981 -.01831988  00000+0 -12882-1 0  9991
2 68032  97.2826  28.1629 0001386  84.8040  21.4864 15.77108196  4201
STARLINK-36947          
1 68033U 26040U   26079.16668981 -.01913456  00000+0 -13308-1 0  9997
2 68033  97.2826  28.1500 0001391  94.5411 347.1178 15.77496817  4112
STARLINK-36939          
1 68034U 26040V   26079.16668981 -.01811109  00000+0 -12647-1 0  9995
2 68034  97.2825  28.1602 0001529  98.5402 359.5490 15.77226527  4115
STARLINK-36943          
1 68035U 26040W   26079.16668981 -.00425055  00000+0 -29604-2 0  9998
2 68035  97.2854  28.1668 0001201  95.1476  10.6492 15.75441288  4164
STARLINK-36906          
1 68036U 26040X   26079.16668981 -.01793862  00000+0 -12479-1 0  9995
2 68036  97.2840  28.1581 0001494  99.9973 353.9871 15.77281427  4110
STARLINK-36388          
1 68037U 26040Y   26079.16668981 -.01835530  00000+0 -12877-1 0  9997
2 68037  97.2828  28.1619 0001297  87.8085  14.3825 15.77168089  4069
STARLINK-36895          
1 68038U 26040Z   26079.16668981 -.01768572  00000+0 -12246-1 0  9999
2 68038  97.2829  28.1537 0001541 104.8132 345.0667 15.77340432  4113
STARLINK-36373          
1 68039U 26040AA  26079.16668981 -.01734852  00000+0 -11965-1 0  9991
2 68039  97.2829  28.1525 0001277  92.5337 353.2404 15.77375654  4065
STARLINK-36711          
1 68040U 26041A   26079.17492187  .00225202  00000+0  14308-2 0  9994
2 68040  53.1595   9.8195 0001079  90.4098 269.7046 15.75298664  2871
STARLINK-36825          
1 68041U 26041B   26079.21741986  .00160538  00000+0  80002-3 0  9999
2 68041  53.1599   9.3639 0000895  82.3510 277.7614 15.80923285  2889
